[{"OBJECT_NAME":"KUIPER-00061","OBJECT_ID":"2025-134X","EPOCH":"2026-02-01T23:30:53.230464","MEAN_MOTION":14.79954309,"ECCENTRICITY":0.00010034,"INCLINATION":51.9016,"RA_OF_ASC_NODE":25.9936,"ARG_OF_PERICENTER":88.9432,"MEAN_ANOMALY":271.1645,"EPHEMERIS_TYPE":0,"CLASSIFICATION_TYPE":"U","NORAD_CAT_ID":64521,"ELEMENT_SET_NO":999,"REV_AT_EPOCH":3484,"BSTAR":0.0005732791,"MEAN_MOTION_DOT":4.154e-5,"MEAN_MOTION_DDOT":0},{"OBJECT_NAME":"KUIPER-00062","OBJECT_ID":"2025-134Y","EPOCH":"2026-02-01T23:02:19.955616","MEAN_MOTION":14.85321401,"ECCENTRICITY":0.00070463,"INCLINATION":51.898,"RA_OF_ASC_NODE":29.1621,"ARG_OF_PERICENTER":163.8935,"MEAN_ANOMALY":196.2255,"EPHEMERIS_TYPE":0,"CLASSIFICATION_TYPE":"U","NORAD_CAT_ID":64522,"ELEMENT_SET_NO":999,"REV_AT_EPOCH":3481,"BSTAR":0.0005275172,"MEAN_MOTION_DOT":4.35e-5,"MEAN_MOTION_DDOT":0},{"OBJECT_NAME":"KUIPER-00063","OBJECT_ID":"2025-134Z","EPOCH":"2026-02-01T10:15:35.444448","MEAN_MOTION":14.80174403,"ECCENTRICITY":0.00012017,"INCLINATION":51.9037,"RA_OF_ASC_NODE":38.4248,"ARG_OF_PERICENTER":55.7923,"MEAN_ANOMALY":304.3153,"EPHEMERIS_TYPE":0,"CLASSIFICATION_TYPE":"U","NORAD_CAT_ID":64523,"ELEMENT_SET_NO":999,"REV_AT_EPOCH":3463,"BSTAR":0.00054525251,"MEAN_MOTION_DOT":3.961e-5,"MEAN_MOTION_DDOT":0},{"OBJECT_NAME":"KUIPER-00064","OBJECT_ID":"2025-134AA","EPOCH":"2026-02-01T23:19:18.230592","MEAN_MOTION":14.79948311,"ECCENTRICITY":0.00012048,"INCLINATION":51.9033,"RA_OF_ASC_NODE":33.4563,"ARG_OF_PERICENTER":75.6406,"MEAN_ANOMALY":284.469,"EPHEMERIS_TYPE":0,"CLASSIFICATION_TYPE":"U","NORAD_CAT_ID":64524,"ELEMENT_SET_NO":999,"REV_AT_EPOCH":3475,"BSTAR":7.74553e-7,"MEAN_MOTION_DOT":-2.15e-6,"MEAN_MOTION_DDOT":0},{"OBJECT_NAME":"KUIPER-00065","OBJECT_ID":"2025-134AB","EPOCH":"2026-01-29T14:05:37.961952","MEAN_MOTION":14.80135329,"ECCENTRICITY":0.00047679,"INCLINATION":51.9047,"RA_OF_ASC_NODE":53.5511,"ARG_OF_PERICENTER":150.6266,"MEAN_ANOMALY":209.4966,"EPHEMERIS_TYPE":0,"CLASSIFICATION_TYPE":"U","NORAD_CAT_ID":64525,"ELEMENT_SET_NO":999,"REV_AT_EPOCH":3416,"BSTAR":-0.0049041201,"MEAN_MOTION_DOT":-0.00037588,"MEAN_MOTION_DDOT":0},{"OBJECT_NAME":"KUIPER-00066","OBJECT_ID":"2025-134AC","EPOCH":"2026-02-01T09:48:39.274560","MEAN_MOTION":15.22332423,"ECCENTRICITY":0.00023318,"INCLINATION":51.88,"RA_OF_ASC_NODE":355.5663,"ARG_OF_PERICENTER":117.1986,"MEAN_ANOMALY":242.9232,"EPHEMERIS_TYPE":0,"CLASSIFICATION_TYPE":"U","NORAD_CAT_ID":64526,"ELEMENT_SET_NO":999,"REV_AT_EPOCH":3523,"BSTAR":0.0006885311,"MEAN_MOTION_DOT":0.00015795,"MEAN_MOTION_DDOT":0},{"OBJECT_NAME":"KUIPER-00069","OBJECT_ID":"2025-151A","EPOCH":"2026-02-01T09:11:34.675008","MEAN_MOTION":14.79928458,"ECCENTRICITY":0.00013861,"INCLINATION":51.9015,"RA_OF_ASC_NODE":81.1672,"ARG_OF_PERICENTER":168.4533,"MEAN_ANOMALY":191.6461,"EPHEMERIS_TYPE":0,"CLASSIFICATION_TYPE":"U","NORAD_CAT_ID":64816,"ELEMENT_SET_NO":999,"REV_AT_EPOCH":3138,"BSTAR":0.0005245231,"MEAN_MOTION_DOT":3.779e-5,"MEAN_MOTION_DDOT":0},{"OBJECT_NAME":"KUIPER-00070","OBJECT_ID":"2025-151B","EPOCH":"2026-02-01T10:58:36.318720","MEAN_MOTION":14.79939593,"ECCENTRICITY":0.00016582,"INCLINATION":51.899,"RA_OF_ASC_NODE":105.7829,"ARG_OF_PERICENTER":144.8809,"MEAN_ANOMALY":215.2263,"EPHEMERIS_TYPE":0,"CLASSIFICATION_TYPE":"U","NORAD_CAT_ID":64817,"ELEMENT_SET_NO":999,"REV_AT_EPOCH":3105,"BSTAR":0.00018774573,"MEAN_MOTION_DOT":1.21e-5,"MEAN_MOTION_DDOT":0},{"OBJECT_NAME":"KUIPER-00071","OBJECT_ID":"2025-151C","EPOCH":"2026-02-01T14:17:13.847424","MEAN_MOTION":14.79944356,"ECCENTRICITY":0.00036814,"INCLINATION":51.9031,"RA_OF_ASC_NODE":102.6927,"ARG_OF_PERICENTER":122.9967,"MEAN_ANOMALY":237.135,"EPHEMERIS_TYPE":0,"CLASSIFICATION_TYPE":"U","NORAD_CAT_ID":64818,"ELEMENT_SET_NO":999,"REV_AT_EPOCH":2992,"BSTAR":0.0070145512,"MEAN_MOTION_DOT":0.000537,"MEAN_MOTION_DDOT":0},{"OBJECT_NAME":"KUIPER-00072","OBJECT_ID":"2025-151D","EPOCH":"2026-01-30T12:55:39.826560","MEAN_MOTION":14.81833619,"ECCENTRICITY":6.696e-5,"INCLINATION":51.8976,"RA_OF_ASC_NODE":91.5892,"ARG_OF_PERICENTER":51.3465,"MEAN_ANOMALY":308.7558,"EPHEMERIS_TYPE":0,"CLASSIFICATION_TYPE":"U","NORAD_CAT_ID":64819,"ELEMENT_SET_NO":999,"REV_AT_EPOCH":2990,"BSTAR":0.00085796851,"MEAN_MOTION_DOT":6.626e-5,"MEAN_MOTION_DDOT":0},{"OBJECT_NAME":"KUIPER-00073","OBJECT_ID":"2025-151E","EPOCH":"2026-02-01T15:05:10.678848","MEAN_MOTION":14.8001725,"ECCENTRICITY":0.00029852,"INCLINATION":51.9002,"RA_OF_ASC_NODE":102.5333,"ARG_OF_PERICENTER":154.1654,"MEAN_ANOMALY":205.9458,"EPHEMERIS_TYPE":0,"CLASSIFICATION_TYPE":"U","NORAD_CAT_ID":64820,"ELEMENT_SET_NO":999,"REV_AT_EPOCH":3111,"BSTAR":0.00065405036,"MEAN_MOTION_DOT":4.778e-5,"MEAN_MOTION_DDOT":0},{"OBJECT_NAME":"KUIPER-00074","OBJECT_ID":"2025-151F","EPOCH":"2026-02-01T22:00:01.999584","MEAN_MOTION":14.80057352,"ECCENTRICITY":0.00027769,"INCLINATION":51.9005,"RA_OF_ASC_NODE":88.7743,"ARG_OF_PERICENTER":162.469,"MEAN_ANOMALY":223.808,"EPHEMERIS_TYPE":0,"CLASSIFICATION_TYPE":"U","NORAD_CAT_ID":64821,"ELEMENT_SET_NO":999,"REV_AT_EPOCH":130,"BSTAR":-0.00077698285,"MEAN_MOTION_DOT":-6.158e-5,"MEAN_MOTION_DDOT":0},{"OBJECT_NAME":"KUIPER-00075","OBJECT_ID":"2025-151G","EPOCH":"2026-02-01T17:17:51.665568","MEAN_MOTION":15.4039822,"ECCENTRICITY":0.00035536,"INCLINATION":51.8746,"RA_OF_ASC_NODE":36.6939,"ARG_OF_PERICENTER":133.9532,"MEAN_ANOMALY":226.1749,"EPHEMERIS_TYPE":0,"CLASSIFICATION_TYPE":"U","NORAD_CAT_ID":64822,"ELEMENT_SET_NO":999,"REV_AT_EPOCH":3085,"BSTAR":0.00086745669,"MEAN_MOTION_DOT":0.000354,"MEAN_MOTION_DDOT":0},{"OBJECT_NAME":"KUIPER-00076","OBJECT_ID":"2025-151H","EPOCH":"2026-02-01T13:42:11.351808","MEAN_MOTION":14.80143209,"ECCENTRICITY":0.00012827,"INCLINATION":51.9005,"RA_OF_ASC_NODE":92.791,"ARG_OF_PERICENTER":172.7325,"MEAN_ANOMALY":187.3656,"EPHEMERIS_TYPE":0,"CLASSIFICATION_TYPE":"U","NORAD_CAT_ID":64823,"ELEMENT_SET_NO":999,"REV_AT_EPOCH":3006,"BSTAR":0.00043359249,"MEAN_MOTION_DOT":3.102e-5,"MEAN_MOTION_DDOT":0},{"OBJECT_NAME":"KUIPER-00077","OBJECT_ID":"2025-151J","EPOCH":"2026-02-01T10:21:20.688480","MEAN_MOTION":14.79901581,"ECCENTRICITY":0.0002637,"INCLINATION":51.902,"RA_OF_ASC_NODE":98.4265,"ARG_OF_PERICENTER":115.672,"MEAN_ANOMALY":244.4515,"EPHEMERIS_TYPE":0,"CLASSIFICATION_TYPE":"U","NORAD_CAT_ID":64824,"ELEMENT_SET_NO":999,"REV_AT_EPOCH":2997,"BSTAR":-0.0032511404,"MEAN_MOTION_DOT":-0.00024898,"MEAN_MOTION_DDOT":0},{"OBJECT_NAME":"KUIPER-00078","OBJECT_ID":"2025-151K","EPOCH":"2026-02-01T11:14:07.682208","MEAN_MOTION":14.7993588,"ECCENTRICITY":0.0001159,"INCLINATION":51.9005,"RA_OF_ASC_NODE":95.7575,"ARG_OF_PERICENTER":189.1928,"MEAN_ANOMALY":170.9013,"EPHEMERIS_TYPE":0,"CLASSIFICATION_TYPE":"U","NORAD_CAT_ID":64825,"ELEMENT_SET_NO":999,"REV_AT_EPOCH":3001,"BSTAR":0.00020396577,"MEAN_MOTION_DOT":1.334e-5,"MEAN_MOTION_DDOT":0}]
