KUIPER-00061            
1 64521U 25134X   26032.97978276  .00004154  00000+0  57328-3 0  9992
2 64521  51.9016  25.9936 0001003  88.9432 271.1645 14.79954309 34840
KUIPER-00062            
1 64522U 25134Y   26032.95995319  .00004350  00000+0  52752-3 0  9992
2 64522  51.8980  29.1621 0007046 163.8935 196.2255 14.85321401 34810
KUIPER-00063            
1 64523U 25134Z   26032.42749357  .00003961  00000+0  54525-3 0  9991
2 64523  51.9037  38.4248 0001201  55.7923 304.3153 14.80174403 34638
KUIPER-00064            
1 64524U 25134AA  26032.97173878 -.00000215  00000+0  77455-6 0  9991
2 64524  51.9033  33.4563 0001204  75.6406 284.4690 14.79948311 34752
KUIPER-00065            
1 64525U 25134AB  26029.58724493 -.00037588  00000+0 -49041-2 0  9990
2 64525  51.9047  53.5511 0004767 150.6266 209.4966 14.80135329 34166
KUIPER-00066            
1 64526U 25134AC  26032.40878790  .00015795  00000+0  68853-3 0  9993
2 64526  51.8800 355.5663 0002331 117.1986 242.9232 15.22332423 35236
KUIPER-00069            
1 64816U 25151A   26032.38304022  .00003779  00000+0  52452-3 0  9990
2 64816  51.9015  81.1672 0001386 168.4533 191.6461 14.79928458 31381
KUIPER-00070            
1 64817U 25151B   26032.45736480  .00001210  00000+0  18775-3 0  9994
2 64817  51.8990 105.7829 0001658 144.8809 215.2263 14.79939593 31055
KUIPER-00071            
1 64818U 25151C   26032.59529916  .00053700  00000+0  70146-2 0  9994
2 64818  51.9031 102.6927 0003681 122.9967 237.1350 14.79944356 29924
KUIPER-00072            
1 64819U 25151D   26030.53865540  .00006626  00000+0  85797-3 0  9997
2 64819  51.8976  91.5892 0000669  51.3465 308.7558 14.81833619 29905
KUIPER-00073            
1 64820U 25151E   26032.62859582  .00004778  00000+0  65405-3 0  9990
2 64820  51.9002 102.5333 0002985 154.1654 205.9458 14.80017250 31113
KUIPER-00074            
1 64821U 25151F   26032.91668981 -.00006158  00000+0 -77698-3 0  9997
2 64821  51.9005  88.7743 0002776 162.4690 223.8080 14.80057352  1302
KUIPER-00075            
1 64822U 25151G   26032.72073687  .00035400  00000+0  86746-3 0  9994
2 64822  51.8746  36.6939 0003553 133.9532 226.1749 15.40398220 30854
KUIPER-00076            
1 64823U 25151H   26032.57096472  .00003102  00000+0  43359-3 0  9992
2 64823  51.9005  92.7910 0001282 172.7325 187.3656 14.80143209 30060
KUIPER-00077            
1 64824U 25151J   26032.43148945 -.00024898  00000+0 -32511-2 0  9995
2 64824  51.9020  98.4265 0002637 115.6720 244.4515 14.79901581 29974
KUIPER-00078            
1 64825U 25151K   26032.46814447  .00001334  00000+0  20397-3 0  9994
2 64825  51.9005  95.7575 0001159 189.1928 170.9013 14.79935880 30018
